OBJECT_NAME,OBJECT_ID,EPOCH,MEAN_MOTION,ECCENTRICITY,INCLINATION,RA_OF_ASC_NODE,ARG_OF_PERICENTER,MEAN_ANOMALY,EPHEMERIS_TYPE,CLASSIFICATION_TYPE,NORAD_CAT_ID,ELEMENT_SET_NO,REV_AT_EPOCH,BSTAR,MEAN_MOTION_DOT,MEAN_MOTION_DDOT
STARLINK-34192,2025-101W,2026-05-26T01:25:39.938592,15.27607181,.00026459,43.0006,281.3860,275.7118,84.3432,0,U,64014,999,5888,.98303994E-3,.26912E-3,0
STARLINK-34093,2025-101X,2026-05-26T01:58:45.973920,15.27597925,.00011023,43.0017,280.6964,270.5582,89.5144,0,U,64015,999,5889,.54351458E-3,.14732E-3,0
STARLINK-34016,2025-101Y,2026-05-26T01:51:22.083552,15.27572160,.0000911,42.9983,280.6533,297.6909,62.3850,0,U,64016,999,5889,.89483173E-3,.24437E-3,0
STARLINK-34161,2025-101Z,2026-05-26T02:04:19.775136,15.27576416,.00002392,42.9989,280.7261,9.7376,350.3480,0,U,64017,999,5889,.62706108E-3,.17031E-3,0
STARLINK-34162,2025-101AA,2026-05-25T16:57:52.772256,15.27597522,.00014645,43.0071,283.0305,234.0693,126.0023,0,U,64018,999,5883,.78572166E-3,.21433E-3,0
STARLINK-34155,2025-101AB,2026-05-25T20:17:17.671488,15.27575538,.0001798,43.0007,282.3545,252.7851,107.2804,0,U,64019,999,5885,.64281587E-3,.17466E-3,0
STARLINK-34141,2025-101AC,2026-05-25T18:37:35.306112,15.27594105,.0001712,43.0025,282.6941,266.4888,93.5768,0,U,64020,999,5884,.47069287E-3,.12718E-3,0
STARLINK-34062,2025-101AD,2026-05-26T01:56:55.054464,15.27582569,.00010459,43.0022,280.6842,262.1880,97.8853,0,U,64021,999,5889,.42567586E-3,.11471E-3,0
STARLINK-34051,2025-102A,2026-05-26T01:47:03.092640,14.98325558,.00034022,70.0001,279.3422,271.0946,88.9823,0,U,64022,999,5754,.23770977E-3,.2744E-4,0
STARLINK-34087,2025-102B,2026-05-26T02:10:50.005920,14.98335276,.00026987,70.0008,279.3975,271.2925,88.7925,0,U,64023,999,5755,.18136817E-3,.2072E-4,0
STARLINK-34184,2025-102C,2026-05-25T18:58:12.746784,14.98334658,.00028578,70.0002,279.9509,269.8669,90.2162,0,U,64024,999,5739,.19095616E-3,.2186E-4,0
STARLINK-34088,2025-102D,2026-05-26T02:23:05.594784,14.98334804,.00031137,70.0010,279.4213,267.8052,92.2751,0,U,64025,999,5755,.2130801E-3,.2451E-4,0
STARLINK-33992,2025-102E,2026-05-26T02:34:52.739904,14.98336784,.0003322,70.0004,279.4554,267.4565,92.6214,0,U,64026,999,5763,.3840493E-3,.4493E-4,0
STARLINK-33967,2025-102F,2026-05-26T01:46:47.376480,14.98335605,.00025346,70.0004,279.3369,272.9830,87.1039,0,U,64027,999,5748,.15990588E-3,.1816E-4,0
STARLINK-33953,2025-102G,2026-05-26T07:29:14.968320,14.98339137,.00031434,70.0011,278.5592,268.5109,91.5690,0,U,64028,999,5768,.14697171E-3,.1661E-4,0
STARLINK-33790,2025-102H,2026-05-26T02:05:03.379488,14.98340516,.00030833,70.0007,279.3775,262.3088,97.7721,0,U,64029,999,5759,.38546688E-3,.4511E-4,0
STARLINK-34030,2025-102J,2026-05-26T02:22:51.280032,14.98336566,.00030666,70.0015,279.4257,266.5342,93.5466,0,U,64030,999,5755,.26526606E-3,.3074E-4,0
STARLINK-34024,2025-102K,2026-05-26T01:58:48.788832,14.98346854,.0002978,70.0011,279.3667,267.2042,92.8776,0,U,64031,999,5748,.14891909E-3,.1685E-4,0
STARLINK-34019,2025-102L,2026-05-26T07:41:16.409184,14.98337744,.00029066,70.0001,278.5882,266.7828,93.2999,0,U,64032,999,5759,.2552312E-3,.2954E-4,0
STARLINK-33860,2025-102M,2026-05-26T01:34:46.457472,14.98331170,.00034684,70.0002,279.3069,270.2667,89.8094,0,U,64033,999,5755,.33486219E-3,.3905E-4,0
STARLINK-33946,2025-102N,2026-05-26T01:41:01.930272,14.98340582,.00031646,70.0000,279.3255,268.1604,91.9193,0,U,64034,999,5759,.50389451E-3,.5926E-4,0
STARLINK-34046,2025-102P,2026-05-26T02:29:05.805888,14.98340332,.00024635,70.0012,279.3203,272.3326,87.7551,0,U,64035,999,5732,.28754526E-3,.334E-4,0
STARLINK-34085,2025-102Q,2026-05-26T02:11:04.216992,14.98336403,.0002951,70.0013,279.3901,270.2501,89.8320,0,U,64036,999,5754,.99823749E-4,.1098E-4,0
STARLINK-34008,2025-102R,2026-05-26T01:53:02.269536,14.98335934,.00024916,70.0007,279.3456,274.3137,85.7737,0,U,64037,999,5755,.16619558E-3,.1891E-4,0
STARLINK-34079,2025-102S,2026-05-26T02:46:51.911040,14.98331734,.00034579,69.9996,279.0774,262.1822,97.8944,0,U,64038,999,5765,.19907662E-3,.2283E-4,0
STARLINK-34089,2025-102T,2026-05-26T02:35:06.947520,14.98340816,.00029338,70.0015,279.4476,265.8467,94.2357,0,U,64039,999,5754,.57956151E-4,.599E-5,0
STARLINK-34117,2025-102U,2026-05-26T02:17:04.958592,14.98334986,.00026215,70.0011,279.4054,270.9589,89.1269,0,U,64040,999,5748,.16987777E-3,.1935E-4,0
STARLINK-34111,2025-102V,2026-05-26T01:59:03.057792,14.98338242,.00031909,70.0008,279.3610,273.7382,86.3412,0,U,64041,999,5732,.48708678E-3,.5725E-4,0
STARLINK-34049,2025-102W,2026-05-26T02:28:52.038048,14.98342281,.00032374,70.0005,279.4388,270.3345,89.7443,0,U,64042,999,5754,.26785584E-3,.3105E-4,0
STARLINK-34096,2025-102X,2026-05-25T10:03:28.649376,14.98349534,.00025325,70.0009,281.0634,274.5281,85.5588,0,U,64043,999,5733,.11772028E-2,.13988E-3,0
