STARLINK-34192          
1 64014U 25101W   26146.05949003  .00026912  00000+0  98304-3 0  9999
2 64014  43.0006 281.3860 0002645 275.7118  84.3432 15.27607181 58887
STARLINK-34093          
1 64015U 25101X   26146.08247655  .00014732  00000+0  54351-3 0  9998
2 64015  43.0017 280.6964 0001102 270.5582  89.5144 15.27597925 58894
STARLINK-34016          
1 64016U 25101Y   26146.07733893  .00024437  00000+0  89483-3 0  9999
2 64016  42.9983 280.6533 0000911 297.6909  62.3850 15.27572160 58894
STARLINK-34161          
1 64017U 25101Z   26146.08633999  .00017031  00000+0  62706-3 0  9998
2 64017  42.9989 280.7261 0000239   9.7376 350.3480 15.27576416 58890
STARLINK-34162          
1 64018U 25101AA  26145.70686079  .00021433  00000+0  78572-3 0  9993
2 64018  43.0071 283.0305 0001464 234.0693 126.0023 15.27597522 58832
STARLINK-34155          
1 64019U 25101AB  26145.84534342  .00017466  00000+0  64282-3 0  9998
2 64019  43.0007 282.3545 0001798 252.7851 107.2804 15.27575538 58856
STARLINK-34141          
1 64020U 25101AC  26145.77610308  .00012718  00000+0  47069-3 0  9998
2 64020  43.0025 282.6941 0001712 266.4888  93.5768 15.27594105 58845
STARLINK-34062          
1 64021U 25101AD  26146.08119276  .00011471  00000+0  42568-3 0  9996
2 64021  43.0022 280.6842 0001045 262.1880  97.8853 15.27582569 58893
STARLINK-34051          
1 64022U 25102A   26146.07434135  .00002744  00000+0  23771-3 0  9999
2 64022  70.0001 279.3422 0003402 271.0946  88.9823 14.98325558 57540
STARLINK-34087          
1 64023U 25102B   26146.09085655  .00002072  00000+0  18137-3 0  9995
2 64023  70.0008 279.3975 0002698 271.2925  88.7925 14.98335276 57556
STARLINK-34184          
1 64024U 25102C   26145.79042531  .00002186  00000+0  19096-3 0  9999
2 64024  70.0002 279.9509 0002857 269.8669  90.2162 14.98334658 57391
STARLINK-34088          
1 64025U 25102D   26146.09937031  .00002451  00000+0  21308-3 0  9996
2 64025  70.0010 279.4213 0003113 267.8052  92.2751 14.98334804 57555
STARLINK-33992          
1 64026U 25102E   26146.10755486  .00004493  00000+0  38405-3 0  9995
2 64026  70.0004 279.4554 0003322 267.4565  92.6214 14.98336784 57630
STARLINK-33967          
1 64027U 25102F   26146.07415945  .00001816  00000+0  15991-3 0  9996
2 64027  70.0004 279.3369 0002534 272.9830  87.1039 14.98335605 57482
STARLINK-33953          
1 64028U 25102G   26146.31197880  .00001661  00000+0  14697-3 0  9999
2 64028  70.0011 278.5592 0003143 268.5109  91.5690 14.98339137 57685
STARLINK-33790          
1 64029U 25102H   26146.08684467  .00004511  00000+0  38547-3 0  9993
2 64029  70.0007 279.3775 0003083 262.3088  97.7721 14.98340516 57590
STARLINK-34030          
1 64030U 25102J   26146.09920463  .00003074  00000+0  26527-3 0  9993
2 64030  70.0015 279.4257 0003066 266.5342  93.5466 14.98336566 57553
STARLINK-34024          
1 64031U 25102K   26146.08250913  .00001685  00000+0  14892-3 0  9997
2 64031  70.0011 279.3667 0002978 267.2042  92.8776 14.98346854 57489
STARLINK-34019          
1 64032U 25102L   26146.32032881  .00002954  00000+0  25523-3 0  9990
2 64032  70.0001 278.5882 0002906 266.7828  93.2999 14.98337744 57598
STARLINK-33860          
1 64033U 25102M   26146.06581548  .00003905  00000+0  33486-3 0  9995
2 64033  70.0002 279.3069 0003468 270.2667  89.8094 14.98331170 57551
STARLINK-33946          
1 64034U 25102N   26146.07016123  .00005926  00000+0  50389-3 0  9995
2 64034  70.0000 279.3255 0003164 268.1604  91.9193 14.98340582 57592
STARLINK-34046          
1 64035U 25102P   26146.10353942  .00003340  00000+0  28755-3 0  9993
2 64035  70.0012 279.3203 0002463 272.3326  87.7551 14.98340332 57323
STARLINK-34085          
1 64036U 25102Q   26146.09102103  .00001098  00000+0  99824-4 0  9997
2 64036  70.0013 279.3901 0002951 270.2501  89.8320 14.98336403 57549
STARLINK-34008          
1 64037U 25102R   26146.07849849  .00001891  00000+0  16620-3 0  9994
2 64037  70.0007 279.3456 0002491 274.3137  85.7737 14.98335934 57553
STARLINK-34079          
1 64038U 25102S   26146.11587860  .00002283  00000+0  19908-3 0  9990
2 64038  69.9996 279.0774 0003457 262.1822  97.8944 14.98331734 57656
STARLINK-34089          
1 64039U 25102T   26146.10771930  .00000599  00000+0  57956-4 0  9997
2 64039  70.0015 279.4476 0002933 265.8467  94.2357 14.98340816 57546
STARLINK-34117          
1 64040U 25102U   26146.09519628  .00001935  00000+0  16988-3 0  9995
2 64040  70.0011 279.4054 0002621 270.9589  89.1269 14.98334986 57481
STARLINK-34111          
1 64041U 25102V   26146.08267428  .00005725  00000+0  48709-3 0  9990
2 64041  70.0008 279.3610 0003190 273.7382  86.3412 14.98338242 57320
STARLINK-34049          
1 64042U 25102W   26146.10338007  .00003105  00000+0  26786-3 0  9997
2 64042  70.0005 279.4388 0003237 270.3345  89.7443 14.98342281 57548
STARLINK-34096          
1 64043U 25102X   26145.41908159  .00013988  00000+0  11772-2 0  9990
2 64043  70.0009 281.0634 0002532 274.5281  85.5588 14.98349534 57337
